DELTA 2 R/B(1)          
1 20453U 90008B   25362.12155574  .00060321  00000+0  92520-3 0  9991
2 20453  35.6064 281.1107 0108868 317.7503  41.4882 15.46558121915018
COSMOS 2058             
1 20465U 90010A   25362.32506655  .00006307  00000+0  37954-3 0  9993
2 20465  82.4706 117.7014 0009751 215.2223 144.8363 15.10628938931461
SL-14 R/B               
1 20466U 90010B   25362.39405558  .00000661  00000+0  77292-4 0  9998
2 20466  82.5025 334.3439 0019998 170.2757 189.8849 14.83486917917911
SL-14 R/B               
1 20511U 90018B   25362.27573550  .00000673  00000+0  81686-4 0  9997
2 20511  82.5220 289.8447 0015665 332.1413  27.8960 14.82063661912003
HST                     
1 20580U 90037B   25361.81274168  .00007679  00000+0  26317-3 0  9998
2 20580  28.4655 169.8779 0002567  48.3389 311.7425 15.28239180762309
SL-16 R/B               
1 20625U 90046B   25362.51033464  .00000022  00000+0  35958-4 0  9995
2 20625  70.9992  87.4028 0012420  46.3869 313.8282 14.14997550838323
COSMOS 2084             
1 20663U 90055A   25362.04864816  .00003265  00000+0  24040-3 0  9999
2 20663  62.7886 219.8271 0029271 176.7470 183.3826 15.05109929925535
SL-6 R/B(2)             
1 20666U 90055D   25362.46762988  .00003404  00000+0  26466-3 0  9994
2 20666  62.7829 135.9716 0014581 319.2738  40.7270 15.03153801927487
SL-8 R/B                
1 20775U 90078B   25362.35078909  .00017665  00000+0  54433-3 0  9990
2 20775  82.9055 315.3314 0369796 253.3221 102.7108 14.86486568798694
SL-8 R/B                
1 21088U 91006B   25362.16056002  .00000083  00000+0  68392-4 0  9995
2 21088  82.9411 223.2424 0021385 234.0224 240.3995 13.77492817754222
OKEAN-3                 
1 21397U 91039A   25362.18223143  .00003478  00000+0  24796-3 0  9998
2 21397  82.5162  46.0986 0013666 207.1420 152.9093 15.04214193854285
COSMOS 2151             
1 21422U 91042A   25362.50281135  .00003459  00000+0  27764-3 0  9999
2 21422  82.4967 152.3121 0011436 303.6017  56.4115 14.99752320852525
